{
"type": "FeatureCollection",
"name": "terminals",
"crs": { "type": "name", "properties": { "name": "urn:ogc:def:crs:OGC:1.3:CRS84" } },
"features": [
{ "type": "Feature", "properties": { "name_ru": "Ялта", "name_en": "Jalta", "lx": null, "ly": null, "quad": null, "haligin": null, "valigin": null, "class": "1" }, "geometry": { "type": "Point", "coordinates": [ 34.1732791, 44.5130754 ] } },
{ "type": "Feature", "properties": { "name_ru": "Алушта", "name_en": "Alushta", "lx": 34.435670627118633, "ly": 44.669832073490376, "quad": null, "haligin": null, "valigin": null, "class": "1" }, "geometry": { "type": "Point", "coordinates": [ 34.4111536, 44.6705295 ] } },
{ "type": "Feature", "properties": { "name_ru": "Профессорский\/Рабочий уголок", "name_en": "Professorsky\/Rabochy ugolok", "lx": 34.423236464949149, "ly": 44.616812070992182, "quad": null, "haligin": null, "valigin": null, "class": "1" }, "geometry": { "type": "Point", "coordinates": [ 34.4006808, 44.6579835 ] } },
{ "type": "Feature", "properties": { "name_ru": "Аэрофлотский", "name_en": "Aeroflotsky", "lx": 33.78879178569494, "ly": 45.030268539836868, "quad": null, "haligin": null, "valigin": null, "class": "1" }, "geometry": { "type": "Point", "coordinates": [ 34.0006189, 45.0205646 ] } },
{ "type": "Feature", "properties": { "name_ru": "Аэропорт", "name_en": "Airport", "lx": 33.982943762169491, "ly": 45.092200912430449, "quad": null, "haligin": null, "valigin": null, "class": "1" }, "geometry": { "type": "Point", "coordinates": [ 33.9809824, 45.0367877 ] } },
{ "type": "Feature", "properties": { "name_ru": "Вокзал", "name_en": "Train station", "lx": 33.895419131728829, "ly": 44.975951722417499, "quad": null, "haligin": null, "valigin": null, "class": "1" }, "geometry": { "type": "Point", "coordinates": [ 34.0837099, 44.9627692 ] } },
{ "type": "Feature", "properties": { "name_ru": "Перевальное", "name_en": "Perevalnoe", "lx": null, "ly": null, "quad": null, "haligin": null, "valigin": null, "class": "1" }, "geometry": { "type": "Point", "coordinates": [ 34.323362734940481, 44.836558631984012 ] } },
{ "type": "Feature", "properties": { "name_ru": "НБС", "name_en": "NBS", "lx": 34.375609422101668, "ly": 44.497783992159206, "quad": null, "haligin": null, "valigin": null, "class": "1" }, "geometry": { "type": "Point", "coordinates": [ 34.2471402, 44.5180659 ] } },
{ "type": "Feature", "properties": { "name_ru": "Массандра", "name_en": "Massandra", "lx": null, "ly": null, "quad": null, "haligin": null, "valigin": null, "class": "1" }, "geometry": { "type": "Point", "coordinates": [ 34.1861614, 44.5092865 ] } },
{ "type": "Feature", "properties": { "name_ru": "Краснокаменка", "name_en": "Krasnokamenka", "lx": 34.36954668477528, "ly": 44.538310642052032, "quad": null, "haligin": null, "valigin": null, "class": "1" }, "geometry": { "type": "Point", "coordinates": [ 34.290111516910891, 44.562072181343105 ] } },
{ "type": "Feature", "properties": { "name_ru": "Запрудное", "name_en": "Zaprudnoe", "lx": 34.37024019206779, "ly": 44.576122115626141, "quad": null, "haligin": null, "valigin": null, "class": "1" }, "geometry": { "type": "Point", "coordinates": [ 34.3231675, 44.5845042 ] } },
{ "type": "Feature", "properties": { "name_ru": "Верхняя Кутузовка", "name_en": "Verhnaya Kutuzovka", "lx": null, "ly": null, "quad": null, "haligin": null, "valigin": null, "class": "1" }, "geometry": { "type": "Point", "coordinates": [ 34.3736883, 44.7221701 ] } },
{ "type": "Feature", "properties": { "name_ru": "Заводское", "name_en": "Zavodskoe", "lx": null, "ly": null, "quad": null, "haligin": null, "valigin": null }, "geometry": { "type": "Point", "coordinates": [ 34.071528, 44.9222464 ] } },
{ "type": "Feature", "properties": { "name_ru": "Новоромановка", "name_en": "Novoromanovka", "lx": null, "ly": null, "quad": null, "haligin": null, "valigin": null }, "geometry": { "type": "Point", "coordinates": [ 34.0688847, 44.912861 ] } },
{ "type": "Feature", "properties": { "name_ru": "7 больница", "name_en": "7 bolnitsa", "lx": null, "ly": null, "quad": null, "haligin": null, "valigin": null }, "geometry": { "type": "Point", "coordinates": [ 34.0773871, 44.9070525 ] } },
{ "type": "Feature", "properties": { "name_ru": "Балаклавский рынок", "name_en": "Balaklavsky rinok", "lx": null, "ly": null, "quad": null, "haligin": null, "valigin": null }, "geometry": { "type": "Point", "coordinates": [ 34.1101433, 44.9194651 ] } },
{ "type": "Feature", "properties": { "name_ru": "Марьино", "name_en": "Marino", "lx": null, "ly": null, "quad": null, "haligin": null, "valigin": null, "class": "1" }, "geometry": { "type": "Point", "coordinates": [ 34.1486799, 44.9178577 ] } },
{ "type": "Feature", "properties": { "name_ru": "Загородный", "name_en": "Zagorodnyi", "lx": 34.175820594779658, "ly": 45.019806393405304, "quad": null, "haligin": null, "valigin": null }, "geometry": { "type": "Point", "coordinates": [ 34.1262962, 44.9858292 ] } },
{ "type": "Feature", "properties": { "name_ru": "Свобода", "name_en": "Svoboda", "lx": null, "ly": null, "quad": null, "haligin": null, "valigin": null }, "geometry": { "type": "Point", "coordinates": [ 34.1451243, 44.9801717 ] } },
{ "type": "Feature", "properties": { "name_ru": "Хокшельды", "name_en": "Hoksheldi", "lx": null, "ly": null, "quad": null, "haligin": null, "valigin": null }, "geometry": { "type": "Point", "coordinates": [ 34.1727041, 44.9907522 ] } },
{ "type": "Feature", "properties": { "name_ru": "Маршала Жукова", "name_en": "Marsala Zukova", "lx": null, "ly": null, "quad": null, "haligin": null, "valigin": null }, "geometry": { "type": "Point", "coordinates": [ 34.0541468, 44.9455433 ] } },
{ "type": "Feature", "properties": { "name_ru": "Аграрное", "name_en": "Agrarnoe", "lx": null, "ly": null, "quad": null, "haligin": null, "valigin": null }, "geometry": { "type": "Point", "coordinates": [ 34.050848316945874, 45.01364263123584 ] } },
{ "type": "Feature", "properties": { "name_ru": "Красноармейская", "name_en": "Krasnoarmeiskaya", "lx": null, "ly": null, "quad": null, "haligin": null, "valigin": null, "class": "1" }, "geometry": { "type": "Point", "coordinates": [ 34.148467, 44.4885479 ] } }
]
}
